VSP RF A1               
1 59135U 24043AP  26066.03073316  .00000577  00000+0  25199-4 0  9997
2 59135  97.5247 201.5379 0009431 234.6315 125.4042 15.26179596111403
STARLINK-31489          
1 59300U 24056E   26068.47182577  .00008214  00000+0  30823-3 0  9990
2 59300  43.0027 231.7130 0001173 273.3293  86.7424 15.27522917111121
