[{"OBJECT_NAME":"VSP RF A1","OBJECT_ID":"2024-043AP","EPOCH":"2026-03-07T00:44:15.345024","MEAN_MOTION":15.26179596,"ECCENTRICITY":0.00094313,"INCLINATION":97.5247,"RA_OF_ASC_NODE":201.5379,"ARG_OF_PERICENTER":234.6315,"MEAN_ANOMALY":125.4042,"EPHEMERIS_TYPE":0,"CLASSIFICATION_TYPE":"U","NORAD_CAT_ID":59135,"ELEMENT_SET_NO":999,"REV_AT_EPOCH":11140,"BSTAR":2.5198753e-5,"MEAN_MOTION_DOT":5.77e-6,"MEAN_MOTION_DDOT":0},{"OBJECT_NAME":"STARLINK-31489","OBJECT_ID":"2024-056E","EPOCH":"2026-03-09T11:19:25.746528","MEAN_MOTION":15.27522917,"ECCENTRICITY":0.00011735,"INCLINATION":43.0027,"RA_OF_ASC_NODE":231.713,"ARG_OF_PERICENTER":273.3293,"MEAN_ANOMALY":86.7424,"EPHEMERIS_TYPE":0,"CLASSIFICATION_TYPE":"U","NORAD_CAT_ID":59300,"ELEMENT_SET_NO":999,"REV_AT_EPOCH":11112,"BSTAR":0.00030822523,"MEAN_MOTION_DOT":8.214e-5,"MEAN_MOTION_DDOT":0}]
